start=new Date('2023-05-25T00:00:00.000Z').valueOf();
sats=[{"MEAN_ANOMALY":"343.0413","OBJECT_TYPE":"PAYLOAD","TIME_SYSTEM":"UTC","DECAY_DATE":null,"EPHEMERIS_TYPE":"0","RA_OF_ASC_NODE":"145.6147","ELEMENT_SET_NO":"999","PERIAPSIS":"429.746","CLASSIFICATION_TYPE":"U","GP_ID":"232453685","TLE_LINE2":"2 56351  97.6551 145.6147 0001614  78.3794 343.0413 15.45182001  1302","ECCENTRICITY":"0.00016140","APOAPSIS":"431.944","SEMIMAJOR_AXIS":"6808.980","BSTAR":"-0.02044200000000","MEAN_ELEMENT_THEORY":"SGP4","EPOCH":"2023-05-24T22:00:00.999936","TLE_LINE1":"1 56351U 23058AL  23144.91667824 -.00892455  00000-0 -20442-1 0  9993","REV_AT_EPOCH":"130","INCLINATION":"97.6551","LAUNCH_DATE":"2023-04-27","MEAN_MOTION_DOT":"-0.00892455","PERIOD":"93.193","SITE":"AFWTR","COUNTRY_CODE":"US","ARG_OF_PERICENTER":"78.3794","NORAD_CAT_ID":"56351","FILE":"3916549","REF_FRAME":"TEME","OBJECT_NAME":"STARLINK-5891","MEAN_MOTION":"15.45182001","RCS_SIZE":"LARGE","MEAN_MOTION_DDOT":"0.0000000000000","OBJECT_ID":"2023-058AL","CENTER_NAME":"EARTH"},{"TIME_SYSTEM":"UTC","DECAY_DATE":null,"MEAN_ANOMALY":"326.7011","OBJECT_TYPE":"PAYLOAD","EPHEMERIS_TYPE":"0","RA_OF_ASC_NODE":"145.6129","TLE_LINE2":"2 56352  97.6551 145.6129 0001592  91.0239 326.7011 15.44844916  1305","GP_ID":"232453818","ECCENTRICITY":"0.00015920","ELEMENT_SET_NO":"999","PERIAPSIS":"430.752","CLASSIFICATION_TYPE":"U","APOAPSIS":"432.920","SEMIMAJOR_AXIS":"6809.971","REV_AT_EPOCH":"130","LAUNCH_DATE":"2023-04-27","INCLINATION":"97.6551","MEAN_MOTION_DOT":"-0.00897838","PERIOD":"93.213","BSTAR":"-0.02081400000000","MEAN_ELEMENT_THEORY":"SGP4","EPOCH":"2023-05-24T22:00:00.999936","TLE_LINE1":"1 56352U 23058AM  23144.91667824 -.00897838  00000-0 -20814-1 0  9997","COUNTRY_CODE":"US","SITE":"AFWTR","ARG_OF_PERICENTER":"91.0239","NORAD_CAT_ID":"56352","FILE":"3916549","OBJECT_NAME":"STARLINK-5885","REF_FRAME":"TEME","MEAN_MOTION":"15.44844916","RCS_SIZE":"LARGE","OBJECT_ID":"2023-058AM","MEAN_MOTION_DDOT":"0.0000000000000","CENTER_NAME":"EARTH"},{"EPHEMERIS_TYPE":"0","RA_OF_ASC_NODE":"145.2638","TIME_SYSTEM":"UTC","DECAY_DATE":null,"OBJECT_TYPE":"PAYLOAD","MEAN_ANOMALY":"268.6198","APOAPSIS":"425.958","SEMIMAJOR_AXIS":"6803.209","GP_ID":"232453978","TLE_LINE2":"2 56353  97.6553 145.2638 0001300  91.5200 268.6198 15.47148727  5033","ECCENTRICITY":"0.00013000","ELEMENT_SET_NO":"999","PERIAPSIS":"424.189","CLASSIFICATION_TYPE":"U","COUNTRY_CODE":"US","SITE":"AFWTR","REV_AT_EPOCH":"503","INCLINATION":"97.6553","LAUNCH_DATE":"2023-04-27","MEAN_MOTION_DOT":"0.00000930","PERIOD":"93.074","BSTAR":"0.00002025500000","MEAN_ELEMENT_THEORY":"SGP4","EPOCH":"2023-05-24T13:56:12.176736","TLE_LINE1":"1 56353U 23058AN  23144.58069649  .00000930  00000-0  20255-4 0  9991","RCS_SIZE":"LARGE","MEAN_MOTION_DDOT":"0.0000000000000","OBJECT_ID":"2023-058AN","CENTER_NAME":"EARTH","NORAD_CAT_ID":"56353","ARG_OF_PERICENTER":"91.5200","FILE":"3916549","OBJECT_NAME":"STARLINK-5874","REF_FRAME":"TEME","MEAN_MOTION":"15.47148727"},{"ELEMENT_SET_NO":"999","PERIAPSIS":"430.133","CLASSIFICATION_TYPE":"U","GP_ID":"232453869","TLE_LINE2":"2 56354  97.6551 145.6137 0001607  83.2162 336.5121 15.45052051  1304","ECCENTRICITY":"0.00016070","APOAPSIS":"432.321","SEMIMAJOR_AXIS":"6809.362","OBJECT_TYPE":"PAYLOAD","MEAN_ANOMALY":"336.5121","TIME_SYSTEM":"UTC","DECAY_DATE":null,"EPHEMERIS_TYPE":"0","RA_OF_ASC_NODE":"145.6137","ARG_OF_PERICENTER":"83.2162","NORAD_CAT_ID":"56354","FILE":"3916549","REF_FRAME":"TEME","OBJECT_NAME":"STARLINK-5877","MEAN_MOTION":"15.45052051","RCS_SIZE":"LARGE","MEAN_MOTION_DDOT":"0.0000000000000","OBJECT_ID":"2023-058AP","CENTER_NAME":"EARTH","BSTAR":"-0.02072300000000","MEAN_ELEMENT_THEORY":"SGP4","EPOCH":"2023-05-24T22:00:00.999936","TLE_LINE1":"1 56354U 23058AP  23144.91667824 -.00900075  00000-0 -20723-1 0  9996","REV_AT_EPOCH":"130","LAUNCH_DATE":"2023-04-27","INCLINATION":"97.6551","MEAN_MOTION_DOT":"-0.00900075","PERIOD":"93.201","SITE":"AFWTR","COUNTRY_CODE":"US"},{"MEAN_ANOMALY":"132.9640","OBJECT_TYPE":"PAYLOAD","TIME_SYSTEM":"UTC","DECAY_DATE":null,"RA_OF_ASC_NODE":"145.2623","EPHEMERIS_TYPE":"0","PERIAPSIS":"424.189","CLASSIFICATION_TYPE":"U","ELEMENT_SET_NO":"999","TLE_LINE2":"2 56355  97.6552 145.2623 0001339 227.1497 132.9640 15.47139727  5030","GP_ID":"232453921","ECCENTRICITY":"0.00013390","APOAPSIS":"426.011","SEMIMAJOR_AXIS":"6803.235","EPOCH":"2023-05-24T13:56:59.000352","TLE_LINE1":"1 56355U 23058AQ  23144.58123843  .00002591  00000-0  53029-4 0  9990","BSTAR":"0.00005302900000","MEAN_ELEMENT_THEORY":"SGP4","MEAN_MOTION_DOT":"0.00002591","LAUNCH_DATE":"2023-04-27","INCLINATION":"97.6552","PERIOD":"93.075","REV_AT_EPOCH":"503","SITE":"AFWTR","COUNTRY_CODE":"US","REF_FRAME":"TEME","OBJECT_NAME":"STARLINK-5533","MEAN_MOTION":"15.47139727","NORAD_CAT_ID":"56355","ARG_OF_PERICENTER":"227.1497","FILE":"3916549","MEAN_MOTION_DDOT":"0.0000000000000","OBJECT_ID":"2023-058AQ","CENTER_NAME":"EARTH","RCS_SIZE":"LARGE"},{"RA_OF_ASC_NODE":"145.2639","EPHEMERIS_TYPE":"0","DECAY_DATE":null,"TIME_SYSTEM":"UTC","MEAN_ANOMALY":"30.8885","OBJECT_TYPE":"PAYLOAD","SEMIMAJOR_AXIS":"6802.435","APOAPSIS":"425.839","ECCENTRICITY":"0.00022620","GP_ID":"232453583","TLE_LINE2":"2 56356  97.6539 145.2639 0002262 329.2231  30.8885 15.47412590  5038","CLASSIFICATION_TYPE":"U","PERIAPSIS":"422.762","ELEMENT_SET_NO":"999","COUNTRY_CODE":"US","SITE":"AFWTR","PERIOD":"93.059","MEAN_MOTION_DOT":"0.00081734","LAUNCH_DATE":"2023-04-27","INCLINATION":"97.6539","REV_AT_EPOCH":"503","TLE_LINE1":"1 56356U 23058AR  23144.58132979  .00081734  00000-0  15835-2 0  9998","EPOCH":"2023-05-24T13:57:06.893856","MEAN_ELEMENT_THEORY":"SGP4","BSTAR":"0.00158350000000","CENTER_NAME":"EARTH","OBJECT_ID":"2023-058AR","MEAN_MOTION_DDOT":"0.0000000000000","RCS_SIZE":"LARGE","MEAN_MOTION":"15.47412590","REF_FRAME":"TEME","OBJECT_NAME":"STARLINK-5535","FILE":"3916549","NORAD_CAT_ID":"56356","ARG_OF_PERICENTER":"329.2231"},{"SEMIMAJOR_AXIS":"6802.871","APOAPSIS":"426.421","ECCENTRICITY":"0.00024760","GP_ID":"232453742","TLE_LINE2":"2 56357  97.6552 145.1265 0002476 136.5343 223.6102 15.47263816  5015","ELEMENT_SET_NO":"999","CLASSIFICATION_TYPE":"U","PERIAPSIS":"423.052","EPHEMERIS_TYPE":"0","RA_OF_ASC_NODE":"145.1265","DECAY_DATE":null,"TIME_SYSTEM":"UTC","MEAN_ANOMALY":"223.6102","OBJECT_TYPE":"PAYLOAD","RCS_SIZE":"LARGE","CENTER_NAME":"EARTH","MEAN_MOTION_DDOT":"0.0000000000000","OBJECT_ID":"2023-058AS","FILE":"3916549","ARG_OF_PERICENTER":"136.5343","NORAD_CAT_ID":"56357","MEAN_MOTION":"15.47263816","OBJECT_NAME":"STARLINK-5538","REF_FRAME":"TEME","COUNTRY_CODE":"US","SITE":"AFWTR","REV_AT_EPOCH":"501","PERIOD":"93.068","LAUNCH_DATE":"2023-04-27","INCLINATION":"97.6552","MEAN_MOTION_DOT":"0.00043908","BSTAR":"0.00086004000000","MEAN_ELEMENT_THEORY":"SGP4","TLE_LINE1":"1 56357U 23058AS  23144.45194318  .00043908  00000-0  86004-3 0  9998","EPOCH":"2023-05-24T10:50:47.890752"},{"RCS_SIZE":"LARGE","OBJECT_ID":"2023-058AT","MEAN_MOTION_DDOT":"0.0000000000000","CENTER_NAME":"EARTH","ARG_OF_PERICENTER":"16.4069","NORAD_CAT_ID":"56358","FILE":"3916549","OBJECT_NAME":"STARLINK-5482","REF_FRAME":"TEME","MEAN_MOTION":"15.47101250","COUNTRY_CODE":"US","SITE":"AFWTR","REV_AT_EPOCH":"501","INCLINATION":"97.6537","LAUNCH_DATE":"2023-04-27","MEAN_MOTION_DOT":"-0.00007527","PERIOD":"93.077","MEAN_ELEMENT_THEORY":"SGP4","BSTAR":"-0.00014701000000","EPOCH":"2023-05-24T10:51:11.211840","TLE_LINE1":"1 56358U 23058AT  23144.45221310 -.00007527  00000-0 -14701-3 0  9996","APOAPSIS":"426.372","SEMIMAJOR_AXIS":"6803.348","GP_ID":"232453635","TLE_LINE2":"2 56358  97.6537 145.1267 0001704  16.4069 343.7235 15.47101250  5019","ECCENTRICITY":"0.00017040","ELEMENT_SET_NO":"999","PERIAPSIS":"424.054","CLASSIFICATION_TYPE":"U","EPHEMERIS_TYPE":"0","RA_OF_ASC_NODE":"145.1267","TIME_SYSTEM":"UTC","DECAY_DATE":null,"OBJECT_TYPE":"PAYLOAD","MEAN_ANOMALY":"343.7235"},{"GP_ID":"232453686","TLE_LINE2":"2 56359  97.6550 145.1255 0001197  42.1564 317.9777 15.47044312  5013","ECCENTRICITY":"0.00011970","ELEMENT_SET_NO":"999","PERIAPSIS":"424.566","CLASSIFICATION_TYPE":"U","APOAPSIS":"426.194","SEMIMAJOR_AXIS":"6803.515","TIME_SYSTEM":"UTC","DECAY_DATE":null,"MEAN_ANOMALY":"317.9777","OBJECT_TYPE":"PAYLOAD","EPHEMERIS_TYPE":"0","RA_OF_ASC_NODE":"145.1255","NORAD_CAT_ID":"56359","ARG_OF_PERICENTER":"42.1564","FILE":"3916549","REF_FRAME":"TEME","OBJECT_NAME":"STARLINK-5551","MEAN_MOTION":"15.47044312","RCS_SIZE":"LARGE","OBJECT_ID":"2023-058AU","MEAN_MOTION_DDOT":"0.0000000000000","CENTER_NAME":"EARTH","REV_AT_EPOCH":"501","LAUNCH_DATE":"2023-04-27","MEAN_MOTION_DOT":"-0.00024658","INCLINATION":"97.6550","PERIOD":"93.081","MEAN_ELEMENT_THEORY":"SGP4","BSTAR":"-0.00048798000000","EPOCH":"2023-05-24T10:50:28.582080","TLE_LINE1":"1 56359U 23058AU  23144.45171970 -.00024658  00000-0 -48798-3 0  9990","COUNTRY_CODE":"US","SITE":"AFWTR"},{"COUNTRY_CODE":"US","SITE":"AFWTR","REV_AT_EPOCH":"503","PERIOD":"93.072","INCLINATION":"97.6548","LAUNCH_DATE":"2023-04-27","MEAN_MOTION_DOT":"0.00019758","BSTAR":"0.00039016000000","MEAN_ELEMENT_THEORY":"SGP4","TLE_LINE1":"1 56360U 23058AV  23144.58110214  .00019758  00000-0  39016-3 0  9996","EPOCH":"2023-05-24T13:56:47.224896","RCS_SIZE":"LARGE","CENTER_NAME":"EARTH","OBJECT_ID":"2023-058AV","MEAN_MOTION_DDOT":"0.0000000000000","FILE":"3916549","NORAD_CAT_ID":"56360","ARG_OF_PERICENTER":"245.1639","MEAN_MOTION":"15.47196174","OBJECT_NAME":"STARLINK-5549","REF_FRAME":"TEME","EPHEMERIS_TYPE":"0","RA_OF_ASC_NODE":"145.2634","TIME_SYSTEM":"UTC","DECAY_DATE":null,"OBJECT_TYPE":"PAYLOAD","MEAN_ANOMALY":"114.9418","SEMIMAJOR_AXIS":"6803.070","APOAPSIS":"426.189","ECCENTRICITY":"0.00018440","TLE_LINE2":"2 56360  97.6548 145.2634 0001844 245.1639 114.9418 15.47196174  5034","GP_ID":"232453819","ELEMENT_SET_NO":"999","CLASSIFICATION_TYPE":"U","PERIAPSIS":"423.680"}];
